STARLINK-3925           
1 52498U 22049AZ  23256.04442187  .00002441  00000+0  17135-3 0  9993
2 52498  53.2180 158.1853 0001326  83.0176 277.0967 15.08847001 75359
STARLINK-3894           
1 52499U 22049BA  23256.19805875  .00005732  00000+0  37778-3 0  9998
2 52499  53.2173 167.4985 0001394  88.0646 272.0505 15.08856523 75243
STARLINK-3866           
1 52500U 22049BB  23256.04074031  .00001228  00000+0  95192-4 0  9998
2 52500  53.2171 158.2045 0001225  98.9316 261.1815 15.08848500 75357
STARLINK-3907           
1 52501U 22049BC  23256.17595099  .00001668  00000+0  12281-3 0  9990
2 52501  53.2158 167.3944 0001182  87.1211 272.9917 15.08849134 75243
STARLINK-3912           
1 52502U 22049BD  23256.16953682  .00002917  00000+0  20121-3 0  9996
2 52502  53.2169 157.6507 0001212  89.8842 270.2289 15.08855052 75379
STARLINK-3861           
1 52503U 22049BE  23256.04170421  .00005973  00000+0  39288-3 0  9995
2 52503  53.2154 158.2500 0001210 110.5991 249.5131 15.08853411 75359
STARLINK-3951           
1 52533U 22051A   23256.30480196  .00007017  00000+0  45829-3 0  9992
2 52533  53.2146 247.1633 0001440  99.9703 260.1452 15.08860375 74300
STARLINK-3952           
1 52534U 22051B   23256.49613335  .00002333  00000+0  16453-3 0  9993
2 52534  53.2165 246.1599 0001441  85.4126 274.7031 15.08855680 75074
STARLINK-3958           
1 52535U 22051C   23256.35997765  .00001744  00000+0  12758-3 0  9990
2 52535  53.2162 246.7710 0001337  92.9607 267.1538 15.08849002 74319
STARLINK-3964           
1 52536U 22051D   23256.35630270  .00000961  00000+0  78470-4 0  9990
2 52536  53.2175 246.7859 0001451  78.8160 281.2995 15.08839079 74319
STARLINK-3897           
1 52537U 22051E   23256.27188350  .00001478  00000+0  10632-3 0  9998
2 52537  53.2170 247.0147 0001435  98.7573 261.3583 15.10480110 74302
STARLINK-3933           
1 52538U 22051F   23256.34525770  .00002041  00000+0  14630-3 0  9997
2 52538  53.2161 246.8392 0001529  90.8344 269.2823 15.08844005 74314
STARLINK-3757           
1 52539U 22051G   23256.41517630  .00002315  00000+0  16345-3 0  9991
2 52539  53.2155 246.5209 0001369  93.3093 266.8055 15.08845871 74326
STARLINK-3940           
1 52540U 22051H   23256.26797774  .00001838  00000+0  13353-3 0  9990
2 52540  53.2167 247.1809 0001488  96.7590 263.3572 15.08844709 74308
STARLINK-3845           
1 52541U 22051J   23256.36871731  .00002638  00000+0  18375-3 0  9996
2 52541  53.2161 251.7326 0001499  92.9359 267.1805 15.08848687 74244
STARLINK-3937           
1 52542U 22051K   23256.19805970  .00001121  00000+0  88529-4 0  9995
2 52542  53.2167 247.4971 0001546  98.1228 261.9939 15.08845101 74298
STARLINK-3926           
1 52543U 22051L   23256.40781645  .00001328  00000+0  10151-3 0  9996
2 52543  53.2163 246.5537 0001422  90.9272 269.1883 15.08846471 74328
STARLINK-3944           
1 52544U 22051M   23256.42759889  .00012758  00000+0  81765-3 0  9992
2 52544  53.2141 251.4788 0001407  89.4074 270.7079 15.08865467 74257
STARLINK-3939           
1 52545U 22051N   23256.27165847  .00002019  00000+0  14487-3 0  9997
2 52545  53.2167 247.1683 0001452  94.6200 265.4958 15.08845393 74300
STARLINK-3948           
1 52546U 22051P   23256.48504857  .00002431  00000+0  17073-3 0  9991
2 52546  53.2156 245.8145 0001332  90.9991 269.1154 15.08848010 74342
STARLINK-3869           
1 52547U 22051Q   23256.36503820  .00003570  00000+0  24220-3 0  9995
2 52547  53.2153 251.7504 0001595  89.4597 270.6577 15.08849411 74242
STARLINK-3931           
1 52548U 22051R   23256.24222090  .00002116  00000+0  15096-3 0  9996
2 52548  53.2163 247.3017 0001495  91.9253 268.1910 15.08842033 74303
STARLINK-3935           
1 52549U 22051S   23256.39309327  .00002117  00000+0  15100-3 0  9999
2 52549  53.2162 246.6222 0001374  97.8354 262.2794 15.08849679 74326
STARLINK-3965           
1 52550U 22051T   23256.24957804  .00003765  00000+0  25446-3 0  9998
2 52550  53.2151 247.2671 0001563  98.3627 261.7543 15.08848634 74304
STARLINK-3969           
1 52551U 22051U   23256.38941663  .00001488  00000+0  11158-3 0  9995
2 52551  53.2153 246.6387 0001422  94.6494 265.4660 15.08843900 74323
STARLINK-3966           
1 52552U 22051V   23256.37197752  .00001774  00000+0  12951-3 0  9997
2 52552  53.2165 246.7253 0001381  90.3022 269.8128 15.08844402 74329
STARLINK-3858           
1 52553U 22051W   23256.39134026  .00000780  00000+0  69856-4 0  9998
2 52553  53.2160 246.6902 0001525  90.4376 269.6790 15.07210026 74329
STARLINK-3770           
1 52554U 22051X   23256.42391642  .00001785  00000+0  13020-3 0  9999
2 52554  53.2166 251.4829 0001517  97.7202 262.3963 15.08843674 74253
STARLINK-3949           
1 52555U 22051Y   23256.25326982  .00000787  00000+0  67536-4 0  9999
2 52555  53.2163 247.3269 0001169  99.9415 260.1709 15.08844156 74302
STARLINK-3763           
1 52556U 22051Z   23256.24944743 -.00008522  00000+0 -42803-3 0  9996
2 52556  53.2199 239.3882 0001446 105.7902 254.3253 15.15595078 74414
STARLINK-3943           
1 52557U 22051AA  23256.36733523  .00003413  00000+0  23235-3 0  9992
2 52557  53.2157 246.7394 0001439  88.2042 271.9115 15.08851447 74320
STARLINK-3954           
1 52558U 22051AB  23256.43449163  .00002635  00000+0  18353-3 0  9995
2 52558  53.2166 236.4362 0001511  94.8036 265.3129 15.08850840 74462
STARLINK-3953           
1 52559U 22051AC  23256.24684210  .00000776  00000+0  66814-4 0  9999
2 52559  53.2167 237.4632 0001409  95.4107 264.7046 15.08842938 74434
STARLINK-3956           
1 52560U 22051AD  23256.43081257  .00002367  00000+0  16673-3 0  9999
2 52560  53.2177 236.4526 0001403  93.9685 266.1468 15.08852056 74465
STARLINK-3955           
1 52561U 22051AE  23256.41287677  .00002103  00000+0  15017-3 0  9991
2 52561  53.2165 251.5351 0001518 100.0856 260.0308 15.08845895 74250
STARLINK-3957           
1 52562U 22051AF  23256.35720788  .00004997  00000+0  33166-3 0  9998
2 52562  53.2157 236.7824 0001477  99.8210 260.2949 15.08861246 74458
STARLINK-3942           
1 52563U 22051AG  23256.48279415  .00005066  00000+0  33604-3 0  9994
2 52563  53.2153 251.2200 0001545  91.3208 268.7961 15.08855962 74269
STARLINK-3959           
1 52564U 22051AH  23256.47639423  .00001917  00000+0  13845-3 0  9999
2 52564  53.2147 251.2581 0001511  96.5102 263.6062 15.08848445 74262
STARLINK-3911           
1 52565U 22051AJ  23256.42713218  .00003409  00000+0  23207-3 0  9991
2 52565  53.2160 236.4688 0001449  99.8753 260.2403 15.08854636 74462
STARLINK-3938           
1 52566U 22051AK  23256.38711774  .00006292  00000+0  41286-3 0  9992
2 52566  53.2147 251.6498 0001511  87.4791 272.6374 15.08855409 74251
STARLINK-3929           
1 52567U 22051AL  23256.35353804  .00005273  00000+0  34904-3 0  9993
2 52567  53.2151 236.8000 0001426  88.0649 272.0506 15.08853761 74457
STARLINK-3930           
1 52568U 22051AM  23256.34249784  .00002121  00000+0  15128-3 0  9990
2 52568  53.2173 236.8475 0001425  92.0140 268.1015 15.08847879 74452
STARLINK-3927           
1 52569U 22051AN  23256.34985681  .00001805  00000+0  13146-3 0  9990
2 52569  53.2173 236.8138 0001432  94.4290 265.6866 15.08849333 74452
STARLINK-3924           
1 52570U 22051AP  23256.33881660  .00001538  00000+0  11467-3 0  9990
2 52570  53.2171 236.8671 0001478  86.1861 273.9300 15.08849695 74452
STARLINK-3901           
1 52574U 22051AQ  23256.21370077  .00001275  00000+0  98182-4 0  9994
2 52574  53.2163 237.4282 0001338  88.7942 271.3203 15.08844697 74434
STARLINK-3920           
1 52575U 22051AR  23256.33514165  .00002170  00000+0  15439-3 0  9994
2 52575  53.2169 236.8807 0001449  84.0420 276.0737 15.08844157 74457
STARLINK-3932           
1 52576U 22051AS  23256.32873756  .00001689  00000+0  12419-3 0  9997
2 52576  53.2172 236.9134 0001551  94.0304 266.0865 15.08842068 74452
STARLINK-3836           
1 52577U 22051AT  23256.37975538  .00002871  00000+0  19834-3 0  9996
2 52577  53.2163 251.6833 0001417  86.7889 273.3266 15.08849969 74251
STARLINK-3833           
1 52578U 22051AU  23256.38344088  .00002828  00000+0  19565-3 0  9991
2 52578  53.2155 251.6650 0001523  85.4938 274.6228 15.08845707 74257
STARLINK-3893           
1 52579U 22051AV  23256.37240413  .00001029  00000+0  82716-4 0  9999
2 52579  53.2173 251.7147 0001500  82.0060 278.1102 15.08840534 74257
STARLINK-3919           
1 52580U 22051AW  23256.50951365  .00007109  00000+0  46410-3 0  9996
2 52580  53.2135 251.1109 0001412  95.0664 265.0489 15.08856510 74271
STARLINK-3915           
1 52581U 22051AX  23256.39033626  .00002479  00000+0  17377-3 0  9990
2 52581  53.2167 236.6330 0001429  99.9981 260.1173 15.08848454 74469
STARLINK-3886           
1 52582U 22051AY  23256.46393474  .00004273  00000+0  28631-3 0  9998
2 52582  53.2152 236.3009 0001353  89.4367 270.6780 15.08855008 74476
STARLINK-3895           
1 52583U 22051AZ  23256.25417641  .00004257  00000+0  28534-3 0  9993
2 52583  53.2164 237.2450 0001369  89.4040 270.7109 15.08846471 74442
STARLINK-3922           
1 52584U 22051BA  23256.32777877  .00003277  00000+0  22384-3 0  9990
2 52584  53.2164 236.9125 0001419  99.8896 260.2256 15.08850605 74450
STARLINK-3906           
1 52585U 22051BB  23256.44185069  .00011846  00000+0  76048-3 0  9997
2 52585  53.2153 236.3634 0001319  87.3777 272.7366 15.08870142 74477
STARLINK-3910           
1 52586U 22051BC  23256.38297896  .00001863  00000+0  13513-3 0  9999
2 52586  53.2160 236.6699 0001422  97.2419 262.8734 15.08841845 74464
STARLINK-3867           
1 52587U 22051BD  23256.58334491 -.00033492  00000+0 -20954-2 0  9996
2 52587  53.2142 235.6227 0001118  84.2704  39.6568 15.08852228  5811
STARLINK-3917           
1 52588U 22051BE  23256.23945700  .00000804  00000+0  68579-4 0  9996
2 52588  53.2175 237.3119 0001422  95.3255 264.7899 15.08844519 74446
